NORAD_CAT_ID,OBJECT_NAME,OBJECT_TYPE,EPOCH,MEAN_MOTION,ECCENTRICITY,INCLINATION,RA_OF_ASC_NODE,ARG_OF_PERICENTER,MEAN_ANOMALY,BSTAR,MEAN_MOTION_DOT,MEAN_MOTION_DDOT,TLE_LINE0,TLE_LINE1,TLE_LINE2,SEMIMAJOR_AXIS,PERIOD,APOGEE,PERIGEE,DECAYED
55761.0,STARLINK-5611,PAYLOAD,2023-11-17 22:42:05,14.98330402,0.0002648,69.999,189.4992,269.8096,90.276,8.668e-06,1e-07,0.0,0 STARLINK-5611,1 55761U 23028W   23321.94589526  .00000010  00000-0  86680-5 0  9992,2 55761  69.9990 189.4992 0002648 269.8096  90.2760 14.98330402 40293,6950.192,96.107,573.897,570.216,0.0
55761.0,STARLINK-5611,PAYLOAD,2023-11-18 01:54:21,14.98331093,0.0002647,69.9994,189.1626,270.4408,89.6448,1.3785e-05,7.2e-07,0.0,0 STARLINK-5611,1 55761U 23028W   23322.07941452  .00000072  00000-0  13785-4 0  9990,2 55761  69.9994 189.1626 0002647 270.4408  89.6448 14.98331093 40317,6950.19,96.107,573.894,570.215,0.0
55761.0,STARLINK-5611,PAYLOAD,2023-11-18 08:18:53,14.98330632,0.0002663,69.9993,188.4892,270.9792,89.1062,7.9293e-06,2e-08,0.0,0 STARLINK-5611,1 55761U 23028W   23322.34645481  .00000002  00000-0  79293-5 0  9993,2 55761  69.9993 188.4892 0002663 270.9792  89.1062 14.98330632 40351,6950.191,96.107,573.907,570.205,0.0
55761.0,STARLINK-5611,PAYLOAD,2023-11-18 21:07:57,14.98334782,0.0002881,69.9989,187.1422,271.106,88.9769,4.7271e-05,4.71e-06,0.0,0 STARLINK-5611,1 55761U 23028W   23322.88052934  .00000471  00000-0  47271-4 0  9997,2 55761  69.9989 187.1422 0002881 271.1060  88.9769 14.98334782 40434,6950.178,96.107,574.045,570.041,0.0
55761.0,STARLINK-5611,PAYLOAD,2023-11-19 00:20:13,14.98337191,0.0002765,69.9989,186.8055,272.7866,87.2977,8.6585e-05,9.4e-06,0.0,0 STARLINK-5611,1 55761U 23028W   23323.01404644  .00000940  00000-0  86585-4 0  9994,2 55761  69.9989 186.8055 0002765 272.7866  87.2977 14.98337191 40456,6950.171,96.107,573.957,570.114,0.0
55761.0,STARLINK-5611,PAYLOAD,2023-11-19 08:20:54,14.98337667,0.0002743,69.9987,185.9637,272.7919,87.2926,-0.00011306,-1.442e-05,0.0,0 STARLINK-5611,1 55761U 23028W   23323.34785022 -.00001442  00000-0 -11306-3 0  9990,2 55761  69.9987 185.9637 0002743 272.7919  87.2926 14.98337667 40503,6950.169,96.107,573.941,570.128,0.0
55761.0,STARLINK-5611,PAYLOAD,2023-11-19 19:33:51,14.98327973,0.0002602,69.9996,184.7864,271.7072,88.3789,-3.8647e-05,-5.54e-06,0.0,0 STARLINK-5611,1 55761U 23028W   23323.81517519 -.00000554  00000-0 -38647-4 0  9997,2 55761  69.9996 184.7864 0002602 271.7072  88.3789 14.98327973 40570,6950.199,96.107,573.873,570.256,0.0
55761.0,STARLINK-5611,PAYLOAD,2023-11-19 21:09:59,14.98330956,0.0002452,69.9993,184.6183,276.4202,83.6678,-8.9887e-05,-1.165e-05,0.0,0 STARLINK-5611,1 55761U 23028W   23323.88193615 -.00001165  00000-0 -89887-4 0  9992,2 55761  69.9993 184.6183 0002452 276.4202  83.6678 14.98330956 40581,6950.19,96.107,573.759,570.351,0.0
55761.0,STARLINK-5611,PAYLOAD,2023-11-20 13:11:19,14.9832922,0.0002942,69.999,182.9347,270.0481,90.034,-1.3681e-05,-2.56e-06,0.0,0 STARLINK-5611,1 55761U 23028W   23324.54953282 -.00000256  00000-0 -13681-4 0  9999,2 55761  69.9990 182.9347 0002942 270.0481  90.0340 14.98329220 40685,6950.195,96.107,574.105,570.016,0.0
55761.0,STARLINK-5611,PAYLOAD,2023-11-20 19:35:51,14.98335241,0.0002497,69.9991,182.2616,273.0545,87.0328,-8.968e-05,-1.163e-05,0.0,0 STARLINK-5611,1 55761U 23028W   23324.81657189 -.00001163  00000-0 -89680-4 0  9996,2 55761  69.9991 182.2616 0002497 273.0545  87.0328 14.98335241 40724,6950.177,96.107,573.777,570.306,0.0
55761.0,STARLINK-5611,PAYLOAD,2023-11-20 21:11:59,14.98337397,0.0002803,69.9989,182.0933,271.2037,88.8801,-0.00011246,-1.435e-05,0.0,0 STARLINK-5611,1 55761U 23028W   23324.88333093 -.00001435  00000-0 -11246-3 0  9992,2 55761  69.9989 182.0933 0002803 271.2037  88.8801 14.98337397 40738,6950.17,96.107,573.983,570.087,0.0
55761.0,STARLINK-5611,PAYLOAD,2023-11-21 14:49:28,14.98326118,0.0002826,69.9988,180.2415,270.1285,89.955,2.9885e-05,2.64e-06,0.0,0 STARLINK-5611,1 55761U 23028W   23325.61769306  .00000264  00000-0  29885-4 0  9990,2 55761  69.9988 180.2415 0002826 270.1285  89.9550 14.98326118 40844,6950.205,96.107,574.034,570.106,0.0
55761.0,STARLINK-5611,PAYLOAD,2023-11-21 21:14:00,14.98328656,0.0002795,69.9988,179.568,269.4256,90.6583,4.8064e-05,4.81e-06,0.0,0 STARLINK-5611,1 55761U 23028W   23325.88473149  .00000481  00000-0  48064-4 0  9997,2 55761  69.9988 179.5680 0002795 269.4256  90.6583 14.98328656 40881,6950.197,96.107,574.005,570.119,0.0
55761.0,STARLINK-5611,PAYLOAD,2023-11-22 00:26:16,14.98330461,0.0002803,69.9987,179.2314,269.7801,90.3037,6.5053e-05,6.83e-06,0.0,0 STARLINK-5611,1 55761U 23028W   23326.01824995  .00000683  00000-0  65053-4 0  9993,2 55761  69.9987 179.2314 0002803 269.7801  90.3037 14.98330461 40901,6950.191,96.107,574.005,570.108,0.0
55761.0,STARLINK-5611,PAYLOAD,2023-11-22 14:51:29,14.9833326,0.000278,69.9987,177.7166,270.2507,89.8333,4.012e-05,3.86e-06,0.0,0 STARLINK-5611,1 55761U 23028W   23326.61908851  .00000386  00000-0  40120-4 0  9991,2 55761  69.9987 177.7166 0002780 270.2507  89.8333 14.98333260 40994,6950.183,96.107,573.98,570.116,0.0
55761.0,STARLINK-5611,PAYLOAD,2023-11-22 21:16:01,14.98337058,0.000275,69.9987,177.0431,270.0638,90.0206,7.4888e-05,8.01e-06,0.0,0 STARLINK-5611,1 55761U 23028W   23326.88612450  .00000801  00000-0  74888-4 0  9997,2 55761  69.9987 177.0431 0002750 270.0638  90.0206 14.98337058 41030,6950.171,96.107,573.947,570.125,0.0
55761.0,STARLINK-5611,PAYLOAD,2023-11-23 00:28:17,14.98338651,0.0002741,69.9987,176.7065,270.284,89.8005,9.0306e-05,9.85e-06,0.0,0 STARLINK-5611,1 55761U 23028W   23327.01964244  .00000985  00000-0  90306-4 0  9990,2 55761  69.9987 176.7065 0002741 270.2840  89.8005 14.98338651 41051,6950.166,96.106,573.936,570.126,0.0
55761.0,STARLINK-5611,PAYLOAD,2023-11-23 19:41:55,14.98322287,0.0002579,69.9989,174.6862,270.2888,89.7975,-8.3581e-05,-1.09e-05,0.0,0 STARLINK-5611,1 55761U 23028W   23327.82077832 -.00001090  00000-0 -83581-4 0  9994,2 55761  69.9989 174.6862 0002579 270.2888  89.7975 14.98322287 41172,6950.217,96.107,573.874,570.289,0.0
55761.0,STARLINK-5611,PAYLOAD,2023-11-23 21:18:03,14.98319856,0.0002534,69.9991,174.5175,271.6862,88.4006,-7.6321e-05,-1.003e-05,0.0,0 STARLINK-5611,1 55761U 23028W   23327.88754015 -.00001003  00000-0 -76321-4 0  9993,2 55761  69.9991 174.5175 0002534 271.6862  88.4006 14.98319856 41189,6950.224,96.108,573.85,570.328,0.0
55761.0,STARLINK-5611,PAYLOAD,2023-11-24 13:19:23,14.98330189,0.0002566,69.9987,172.8333,266.9832,93.1033,-6.3587e-05,-8.52e-06,0.0,0 STARLINK-5611,1 55761U 23028W   23328.55513517 -.00000852  00000-0 -63587-4 0  9999,2 55761  69.9987 172.8333 0002566 266.9832  93.1033 14.98330189 41286,6950.192,96.107,573.841,570.274,0.0
55761.0,STARLINK-5611,PAYLOAD,2023-11-24 19:43:55,14.98331301,0.0002526,69.9991,172.1619,258.8039,101.2836,-5.1975e-05,-7.13e-06,0.0,0 STARLINK-5611,1 55761U 23028W   23328.82217360 -.00000713  00000-0 -51975-4 0  9990,2 55761  69.9991 172.1619 0002526 258.8039 101.2836 14.98331301 41320,6950.189,96.107,573.809,570.298,0.0
55761.0,STARLINK-5611,PAYLOAD,2023-11-24 21:20:03,14.98330602,0.000254,69.9991,171.9937,259.5145,100.5728,-5.9267e-05,-8e-06,0.0,0 STARLINK-5611,1 55761U 23028W   23328.88893430 -.00000800  00000-0 -59267-4 0  9993,2 55761  69.9991 171.9937 0002540 259.5145 100.5728 14.98330602 41338,6950.191,96.107,573.821,570.291,0.0
55761.0,STARLINK-5611,PAYLOAD,2023-11-24 22:56:11,14.98330528,0.000254,69.9991,171.8253,259.9614,100.1258,-5.8397e-05,-7.9e-06,0.0,0 STARLINK-5611,1 55761U 23028W   23328.95569436 -.00000790  00000-0 -58397-4 0  9998,2 55761  69.9991 171.8253 0002540 259.9614 100.1258 14.98330528 41345,6950.191,96.107,573.822,570.291,0.0
55761.0,STARLINK-5611,PAYLOAD,2023-11-25 21:22:04,14.9833199,0.0002667,69.9985,169.4681,263.2748,96.8107,0.00017023,1.939e-05,0.0,0 STARLINK-5611,1 55761U 23028W   23329.89032781  .00001939  00000-0  17023-3 0  9994,2 55761  69.9985 169.4681 0002667 263.2748  96.8107 14.98331990 41485,6950.187,96.107,573.905,570.198,0.0
55761.0,STARLINK-5611,PAYLOAD,2023-11-26 13:23:25,14.98334593,0.0002381,69.9992,167.7859,257.8007,102.2885,4.7506e-05,4.74e-06,0.0,0 STARLINK-5611,1 55761U 23028W   23330.55792902  .00000474  00000-0  47506-4 0  9990,2 55761  69.9992 167.7859 0002381 257.8007 102.2885 14.98334593 41589,6950.179,96.107,573.699,570.389,0.0
55761.0,STARLINK-5611,PAYLOAD,2023-11-26 19:47:57,14.98332194,0.0002376,69.9995,167.1132,254.3101,105.7796,2.3958e-05,1.93e-06,0.0,0 STARLINK-5611,1 55761U 23028W   23330.82497020  .00000193  00000-0  23958-4 0  9996,2 55761  69.9995 167.1132 0002376 254.3101 105.7796 14.98332194 41620,6950.186,96.107,573.702,570.4,0.0
55761.0,STARLINK-5611,PAYLOAD,2023-11-26 21:24:05,14.9832995,0.0002496,69.9992,166.9441,258.9105,101.1773,1.7236e-05,1.13e-06,0.0,0 STARLINK-5611,1 55761U 23028W   23330.89173191  .00000113  00000-0  17236-4 0  9997,2 55761  69.9992 166.9441 0002496 258.9105 101.1773 14.98329950 41636,6950.193,96.107,573.793,570.323,0.0
55761.0,STARLINK-5611,PAYLOAD,2023-11-27 15:01:34,14.98334812,0.0002476,69.999,165.0927,261.5533,98.5345,-6.2156e-05,-8.35e-06,0.0,0 STARLINK-5611,1 55761U 23028W   23331.62609056 -.00000835  00000-0 -62156-4 0  9997,2 55761  69.9990 165.0927 0002476 261.5533  98.5345 14.98334812 41745,6950.178,96.107,573.764,570.322,0.0
55761.0,STARLINK-5611,PAYLOAD,2023-11-27 21:26:06,14.98332989,0.0002486,69.9991,164.4192,262.6143,97.4733,-3.7025e-05,-5.35e-06,0.0,0 STARLINK-5611,1 55761U 23028W   23331.89313026 -.00000535  00000-0 -37025-4 0  9999,2 55761  69.9991 164.4192 0002486 262.6143  97.4733 14.98332989 41789,6950.184,96.107,573.776,570.321,0.0
55761.0,STARLINK-5611,PAYLOAD,2023-11-27 23:02:14,14.98331951,0.0002474,69.9992,164.2509,262.9333,97.1545,-1.0222e-05,-2.15e-06,0.0,0 STARLINK-5611,1 55761U 23028W   23331.95989012 -.00000215  00000-0 -10222-4 0  9995,2 55761  69.9992 164.2509 0002474 262.9333  97.1545 14.98331951 41798,6950.187,96.107,573.771,570.332,0.0
